ONEWEB-0055             
1 45443U 20020V   22109.57592389  .00000506  00000+0  13922-2 0  9995
2 45443  87.8858 323.1895 0001861  77.1585 282.9751 13.11417389103440
ONEWEB-0093             
1 45444U 20020W   22109.55124294 -.00000400  00000+0 -11632-2 0  9991
2 45444  87.8850 323.2233 0001907  76.8618 283.2723 13.11418278103502
ONEWEB-0029             
1 45445U 20020X   22109.57368079  .00000436  00000+0  11950-2 0  9995
2 45445  87.8851 323.2031 0002125  85.4181 274.7189 13.11417522103483
ONEWEB-0068             
1 45446U 20020Y   22109.54337578 -.00000505  00000+0 -14620-2 0  9999
2 45446  87.8847 323.2220 0002030  74.4141 285.7211 13.11416140103425
ONEWEB-0046             
1 45447U 20020Z   22109.54000325 -.00000511  00000+0 -14774-2 0  9994
2 45447  87.8849 323.2311 0001764  88.8873 271.2457 13.11416004103435
ONEWEB-0063             
1 45448U 20020AA  22109.56918466  .00000317  00000+0  85982-3 0  9993
2 45448  87.8845 323.2150 0001690  94.2140 265.9181 13.11418514103521
ONEWEB-0019             
1 45449U 20020AB  22109.54449014 -.00000490  00000+0 -14177-2 0  9991
2 45449  87.8852 323.2123 0001589  84.2816 275.8493 13.11416999103369
ONEWEB-0094             
1 45450U 20020AC  22109.53170082  .00000051  00000+0  98824-4 0  9992
2 45450  87.9019 307.9147 0001707  81.9921 278.1404 13.17650087106180
ONEWEB-0087             
1 45451U 20020AD  22109.57816798  .00000481  00000+0  13213-2 0  9992
2 45451  87.8856 323.2413 0002178  83.4641 276.6734 13.11416054103415
ONEWEB-0082             
1 45452U 20020AE  22109.58041150  .00000570  00000+0  15716-2 0  9995
2 45452  87.8847 323.1792 0002222  73.4342 286.7030 13.11419869103500
ONEWEB-0050             
1 45453U 20020AF  22109.50474790  .00002512  00000+0  22507-3 0  9993
2 45453  87.5381 259.4158 0028193  68.1987 292.2239 14.95072365113467
ONEWEB-0034             
1 45454U 20020AG  22109.59836108  .00000086  00000+0  20747-3 0  9996
2 45454  87.8844 323.1975 0001976  84.4750 275.6603 13.11414768103429
ONEWEB-0060             
1 45455U 20020AH  22109.60732766 -.00000284  00000+0 -83637-3 0  9993
2 45455  87.8848 323.2028 0001805  87.2694 272.8640 13.11415167103382
ONEWEB-0086             
1 45456U 20020AJ  22109.54898198 -.00000416  00000+0 -12095-2 0  9995
2 45456  87.8850 323.2077 0001986  80.0318 280.1034 13.11417333103436
ONEWEB-0088             
1 45457U 20020AK  22109.60060171  .00000000  00000+0 -35575-4 0  9993
2 45457  87.8841 323.2131 0001951  87.9990 272.1361 13.11411936103372
ONEWEB-0102             
1 47258U 20100A   22109.57501473  .00000388  00000+0  10436-2 0  9999
2 47258  87.8794 292.6702 0001736  78.9159 281.2165 13.12443392 65407
ONEWEB-0109             
1 47259U 20100B   22109.58657823  .00000391  00000+0  10515-2 0  9994
2 47259  87.8909 292.6831 0001590  84.0549 276.0760 13.12441952 65232
ONEWEB-0110             
1 47260U 20100C   22109.53343015 -.00000420  00000+0 -12018-2 0  9991
2 47260  87.8842 292.6659 0001701  76.6270 283.5048 13.12441116 65391
ONEWEB-0111             
1 47261U 20100D   22109.56345826  .00000289  00000+0  76795-3 0  9991
2 47261  87.8817 292.6746 0001725  81.7214 278.4110 13.12444771 65238
ONEWEB-0114             
1 47262U 20100E   22109.59579853 -.00000112  00000+0 -34643-3 0  9997
2 47262  87.8879 292.6126 0001237  85.3705 274.7565 13.12443381 65196
ONEWEB-0117             
1 47263U 20100F   22109.58887176  .00000069  00000+0  15571-3 0  9995
2 47263  87.8903 292.6847 0001673  83.3122 276.8197 13.12441891 65200
ONEWEB-0118             
1 47264U 20100G   22109.54266946 -.00000304  00000+0 -88093-3 0  9991
2 47264  87.8836 292.6515 0001315 115.7710 244.3555 13.12444543 65399
ONEWEB-0119             
1 47265U 20100H   22109.57039420  .00000431  00000+0  11632-2 0  9993
2 47265  87.8791 292.6753 0001714  84.8597 275.2727 13.12441271 65373
ONEWEB-0120             
1 47266U 20100J   22109.52417213 -.00000266  00000+0 -77593-3 0  9996
2 47266  87.8865 292.7292 0001437  83.2295 276.8997 13.12440094 65395
ONEWEB-0121             
1 47267U 20100K   22109.50801297  .00000313  00000+0  83526-3 0  9998
2 47267  87.8834 292.7795 0001865  84.5764 275.5577 13.12439546 65301
ONEWEB-0122             
1 47268U 20100L   22109.57732144  .00000395  00000+0  10637-2 0  9992
2 47268  87.8876 292.6606 0001641  83.5780 276.5536 13.12440902 65222
ONEWEB-0123             
1 47269U 20100M   22109.57268585  .00000497  00000+0  13467-2 0  9993
2 47269  87.8807 292.6699 0001605  87.2419 272.8893 13.12444972 65360
ONEWEB-0124             
1 47270U 20100N   22109.55884303  .00000170  00000+0  43730-3 0  9990
2 47270  87.8845 292.5941 0002113  84.0192 276.1178 13.12442496 65240
ONEWEB-0125             
1 47271U 20100P   22109.53804424 -.00000407  00000+0 -11664-2 0  9990
2 47271  87.8808 292.7364 0001366  87.9983 272.1302 13.12444260 65303
ONEWEB-0126             
1 47272U 20100Q   22109.56229285  .00000310  00000+0  82765-3 0  9992
2 47272  87.8813 292.7215 0001534  79.3083 280.8218 13.12442089 65374
ONEWEB-0127             
1 47273U 20100R   22109.52649081 -.00000326  00000+0 -94190-3 0  9993
2 47273  87.8836 292.6151 0001627  89.3863 270.7452 13.12439194 65391
ONEWEB-0128             
1 47274U 20100S   22109.54728591 -.00000200  00000+0 -59023-3 0  9997
2 47274  87.8840 292.6481 0001937  76.6681 283.4664 13.12443446 65418
ONEWEB-0129             
1 47275U 20100T   22109.52879913 -.00000328  00000+0 -94734-3 0  9990
2 47275  87.8900 292.6852 0000085 339.9874  20.1251 13.12444550 65347
ONEWEB-0130             
1 47276U 20100U   22109.55420398  .00000017  00000+0  11836-4 0  9999
2 47276  87.8840 292.6984 0001774  83.1491 276.9839 13.12445750 65319
ONEWEB-0131             
1 47277U 20100V   22109.55190464 -.00000048  00000+0 -16976-3 0  9993
2 47277  87.8840 292.6456 0001879  86.8229 273.3114 13.12444615 65359
ONEWEB-0132             
1 47278U 20100W   22109.58195426  .00000342  00000+0  91563-3 0  9990
2 47278  87.8800 292.6893 0001395  85.0286 275.1002 13.12442284 65253
ONEWEB-0133             
1 47279U 20100X   22109.52187233 -.00000241  00000+0 -70605-3 0  9996
2 47279  87.8833 292.6378 0001630  86.3741 273.7574 13.12442253 65401
ONEWEB-0134             
1 47280U 20100Y   22109.56575701  .00000377  00000+0  10116-2 0  9991
2 47280  87.8847 292.6334 0001820  77.3732 282.7600 13.12445642 65383
ONEWEB-0135             
1 47281U 20100Z   22109.53571766 -.00000424  00000+0 -12154-2 0  9995
2 47281  87.8831 292.6240 0001616  80.5916 279.5395 13.12441514 65408
ONEWEB-0136             
1 47282U 20100AA  22109.55652035 -.00000344  00000+0 -99284-3 0  9998
2 47282  87.8890 292.6792 0001732  56.2210 303.9083 13.12444337 65336
ONEWEB-0137             
1 47283U 20100AB  22109.51724374 -.00000091  00000+0 -28737-3 0  9995
2 47283  87.8834 292.6825 0001396  88.4954 271.6335 13.12443105 65232
ONEWEB-0138             
1 47284U 20100AC  22109.56809109  .00000425  00000+0  11459-2 0  9992
2 47284  87.8859 292.6782 0001548  77.2744 282.8557 13.12443711 65327
ONEWEB-0139             
1 47285U 20100AD  22109.54033894 -.00000562  00000+0 -15963-2 0  9999
2 47285  87.8816 292.7506 0001714  76.3687 283.7633 13.12442803 65390
ONEWEB-0140             
1 47286U 20100AE  22109.56116498  .00000285  00000+0  75780-3 0  9998
2 47286  87.8815 292.6826 0001671  80.2176 279.9142 13.12444264 65365
ONEWEB-0141             
1 47287U 20100AF  22109.50917274  .00000263  00000+0  69599-3 0  9991
2 47287  87.8844 292.6573 0001515  92.7158 267.4144 13.12384245 65346
ONEWEB-0142             
1 47288U 20100AG  22109.57610272  .00000410  00000+0  11043-2 0  9991
2 47288  87.8804 292.7434 0001300  97.8360 262.2916 13.12426544 65342
ONEWEB-0143             
1 47289U 20100AH  22109.53111526 -.00000400  00000+0 -11469-2 0  9999
2 47289  87.8837 292.6746 0001719  88.1765 271.9560 13.12443730 65315
ONEWEB-0144             
1 47290U 20100AJ  22109.57963483  .00000401  00000+0  10782-2 0  9998
2 47290  87.8882 292.6452 0001775  82.1136 278.0194 13.12442678 65242
ONEWEB-0145             
1 47291U 20100AK  22109.54959557 -.00000099  00000+0 -31005-3 0  9990
2 47291  87.8812 292.6597 0001583  87.2272 272.9038 13.12443126 65430
ONEWEB-0146             
1 47292U 20100AL  22109.54497650 -.00000273  00000+0 -79393-3 0  9998
2 47292  87.8836 292.6939 0002657  95.6541 264.4891 13.12443699 65340
ONEWEB-0147             
1 47293U 20100AM  22109.51497068  .00003342  00000+0  92522-2 0  9995
2 47293  87.8812 292.6940 0001661  61.1987 298.9308 13.12433652 65234
ONEWEB-0115             
1 48042U 21025A   22109.50911277 -.00000058  00000+0 -19363-3 0  9993
2 48042  87.8887 262.0186 0002000  88.2979 271.8379 13.13467608 54102
ONEWEB-0152             
1 48043U 21025B   22109.44411949 -.00000224  00000+0 -64716-3 0  9995
2 48043  87.8937 262.0837 0001767  87.9707 272.1625 13.13473126 54050
ONEWEB-0153             
1 48044U 21025C   22109.42171709  .00000262  00000+0  68203-3 0  9996
2 48044  87.8869 262.1916 0001646  95.9707 264.1610 13.13467316 54047
ONEWEB-0154             
1 48045U 21025D   22109.41949351  .00000278  00000+0  72652-3 0  9992
2 48045  87.8966 262.1428 0001642  93.8009 266.3308 13.13463349 54008
ONEWEB-0116             
1 48046U 21025E   22109.46205312 -.00000387  00000+0 -10955-2 0  9990
2 48046  87.8962 262.1223 0002141  98.7897 261.3475 13.13470517 54153
ONEWEB-0150             
1 48047U 21025F   22109.43517166 -.00000201  00000+0 -58521-3 0  9998
2 48047  87.8844 261.9861 0001389 101.0295 259.0990 13.13468686 54049
ONEWEB-0107             
1 48048U 21025G   22109.51356829 -.00000198  00000+0 -57799-3 0  9996
2 48048  87.8871 261.9931 0001154  96.8597 263.2663 13.13467375 54031
ONEWEB-0101             
1 48049U 21025H   22109.47774613  .00000132  00000+0  32765-3 0  9999
2 48049  87.8863 262.0504 0001564  89.9961 270.1347 13.13472735 54003
